#dP2022  5 26  0  0  0.00000000      96 __u+U ITR00 FIT  IAC
## 2211 345600.00000000   900.00000000 59725 0.0000000000000
+  117   C06C07C08C09C10C11C12C13C14C16C19C20C21C22C23C24C25
+        C26C27C28C29C30C32C33C34C35C36C37C38C39C40C41C42C43
+        C44C45C46E01E02E03E04E05E07E08E09E10E11E12E13E14E15
+        E18E19E21E24E25E26E27E30E31E33E34E36G01G02G03G04G05
+        G06G07G08G09G10G11G12G13G14G15G16G17G18G19G20G21G22
+        G23G24G25G26G27G28G29G30G31G32J02J03R01R02R03R04R05
+        R07R08R09R11R12R13R14R15R17R18R19R20R21R22R24  0  0
++         8  9 12  9  8  8  7 11  8  6  6  6  6  7  7  6  6
++         5  6  6  6  7  5  6  7  6  5  6  8  8  8  8  7  7
++         8  6  7  6  7  5  6  6  6  7  7  6  5  5  7  6  6
++         6  6  8  6  6  6  6  7  6  6  6  5  6  7  6  6  6
++         6  6  5  6  5  6  5  8  4  7  6  5  6  6  6  5  6
++         6  4  5  6  6  6  5  6  6  6  7  8  7  5  5  6  7
++         6  5  6  6  4  6  6  6  8  6  6  7  6  8  8  0  0
%c M  cc GPS ccc cccc cccc cccc cccc ccccc ccccc ccccc ccccc
%c cc cc ccc ccc cccc cccc cccc cccc ccccc ccccc ccccc ccccc
%f  0.0000000  0.000000000  0.00000000000  0.000000000000000
%f  0.0000000  0.000000000  0.00000000000  0.000000000000000
%i    0    0    0    0      0      0      0      0         0
%i    0    0    0    0      0      0      0      0         0
/* INFORMATION & ANALYSIS CENTER (IAC)      ULTRA-RAPID DATA
/* S/V CLOCKS ARE ALIGNED TO GNSS TIME                      
/* G:C1WC2W R:C1PC2P E:C1XC5X C:C2IC6I J:C1CC2S             
/* PCV:IGS14_2196 OL/AL:FES2004  NONE     YN ORB:CoN CLK:CoN
*  2022 05 26  5 30  0.00000000
PC06  -3156.564407  25845.577677 -33113.068046     59.290754
PC07 -17507.980199  32965.722743  19464.840277   -215.122033
PC08  -5644.479068  40104.178348  11994.658504    331.663470
PC09   4730.410482  28593.786019 -30074.352000   -822.632805
PC10  -9067.702943  32644.657051  25066.573347    130.247246
PC11   1605.267733  17221.033342  21963.506905    375.143709
PC12 -16628.258879   7160.937984  21260.661874   -610.153822
PC13   -994.882407  41977.193653   5274.901486    -22.165845
PC14  -8415.654516  20081.853986 -17393.408846    483.981556
PC16  -6545.760776  23684.342319 -34062.814000    134.736194
PC19  -1625.323359 -17106.411013  22023.309468    866.090095
PC20  15724.206738 -20011.073438  11508.237368   -930.608352
PC21 -24761.978357  10972.468385   6683.572306   -361.489464
PC22 -18751.007600  -4219.688359  20226.150677   -967.770168
PC23  14403.659533  14751.238293  18812.523770   -930.788682
PC24  -8149.192394  23199.851234 -13221.134120   -969.456981
PC25   5769.448043  26870.215801   4894.955707   -731.232877
PC26 -15272.361934   7537.338098 -22121.070104    732.558218
PC27  22898.218473   -631.783286 -15951.813597    729.007017
PC28  24807.265001  12784.298380     25.616307     71.096267
PC29 -12537.812377 -18589.088362 -16626.471569    559.709598
PC30   8018.959062 -13806.297197 -22897.425663    499.020708
PC32  24687.773070 -11182.383408  -6666.303945   -964.540472
PC33   1678.978380  17122.328442 -21956.721134   -966.523618
PC34  -7013.007887  14331.109867  22879.473642   -395.196977
PC35 -24931.425543 -12535.565043  -1065.084704    291.189968
PC36  -4784.859249 -27138.545155  -4371.859045   -965.183843
PC37  15688.387199  -5790.521448  22354.967089   -908.887952
PC38 -10281.125875  36589.056772  18436.159597    234.780963
PC39 -12116.149171  20919.174088 -34524.608349     34.976522
PC40 -25181.840499  28087.549661  18640.837694    272.140728
PC41  18477.260570   4516.439183 -20365.437197   -966.821191
PC42 -16521.653315  19835.301467 -10519.741654   -968.011714
PC43  11745.557875  18717.731556  17014.636665   -921.931199
PC44 -23044.974912   1316.448398  15691.060405    671.674332
PC45 -14395.534105 -14445.196240 -19036.479221    766.758680
PC46   7162.406486 -24117.654049  12043.199686   -344.615490
PE01  16788.130442 -23375.539028   6918.153518   -483.765988
PE02 -16719.581847  23481.621229  -6759.746278    301.560773
PE03 -19735.485124  13645.332851 -17320.852396   -562.143557
PE04  -1221.625741 -17035.006996  24188.695152  -1036.066479
PE05 -29519.807739   2155.139636   -118.647054   -178.141963
PE07  21997.668913  10389.614917 -16858.003092   -672.208224
PE08   1588.168711  16853.953906 -24273.769126   -535.523056
PE09 -22070.595075 -10186.963141  16888.828306   -531.211752
PE10 -14652.247748 -25463.482834  -3635.281027   -515.456504
PE11 -19640.983789 -21114.699109   6706.076502   3555.855753
PE12  -7450.164872 -25667.121490 -12754.447948   4595.133121
PE13  19441.810615  21473.322779  -6067.026220    428.909600
PE14  11628.048325 -18558.106720 -23705.019962  -1826.661226
PE15   7419.292413  25578.095838  12907.976092    743.368277
PE18      5.152659  15477.575079  18491.158267  -1405.010521
PE19  21818.173834 -12446.525120  15672.150706  -5294.428784
PE21  19547.518107  -7607.225516  20883.941270   -736.386268
PE24 -10568.845933 -14709.321341 -23421.000929   -635.460807
PE25 -19509.281086   7320.382526 -21019.511648   -575.282836
PE26  19762.708301   3794.793538 -21709.317056  -1188.057674
PE27  11336.326678  13563.943071  23744.642017   -307.357619
PE30  -4320.081038  26820.038022  11759.715172   -540.649147
PE31   3473.664209 -26555.518416 -12599.318393   -497.232037
PE33   8906.697264 -14589.611395 -24170.073006   -456.271560
PE34  -8729.779361  14766.611506  24111.560032   -518.936478
PE36 -19961.181860  -4811.841721  21321.775498   -378.973259
PG01 -17102.696882  -5677.602643  19336.092005    354.886496
PG02  14890.255869  21766.565646  -1681.519704   -653.129663
PG03 -18265.581419   5430.564360  18341.083297   -257.415060
PG04 -26538.533855   -966.435693  -1645.642540   -163.643188
PG05  11784.539397   9979.839478 -21765.667041    -83.203133
PG06   3999.415179  23812.727583  11033.679577    317.928385
PG07 -10861.845095  11477.060062 -20874.463162    322.209283
PG08 -25055.228767  -5756.325622  -7415.487797    -69.516851
PG09 -22858.441553   7472.632581 -11369.916456   -333.797608
PG10  10646.671753 -23585.528708   5394.026396   -429.103918
PG11  12736.402473  23118.070043  -3049.198639    -20.686824
PG12  17135.922959    -49.037994  19992.311217   -221.228113
PG13  18620.355397  13140.473114 -13936.442026    318.301915
PG14 -12463.126582  23038.401249   4085.956645   -109.784258
PG15  25684.244098   3167.495837  -7080.058647    -58.309886
PG16  -6871.629978 -14813.206824 -21126.618857   -503.998463
PG17  -8175.560965  13760.069856  21635.574492    617.241896
PG18  10941.362133 -11044.708386 -21530.603187    160.035083
PG19    852.614162  14939.419735  21700.190600    162.234457
PG20   4950.854493  19761.887007 -17155.541993    514.043826
PG21 -19397.523128 -13886.274624  13006.794854    161.213550
PG22  -3983.786576 -15669.341740  21518.103617    265.225238
PG23  16481.597227 -19996.954344  -5580.707603    -24.248928
PG24  19313.218030   8629.229668  16004.290831    234.089146
PG25  18686.316873 -14583.154756  11414.278872    329.416517
PG26    545.037432 -22298.493906 -14272.014410    208.150357
PG27 -16187.586613 -12553.371133 -17332.464739    208.340369
PG28  -6355.446803  22690.199303  12990.865668    350.995569
PG29  23412.911902  -5006.442604 -11626.166038   -517.530203
PG30  -3941.693589  19958.922421 -16858.725798   -529.260312
PG31  -5365.368070 -24355.864847   8299.133890   -179.168688
PG32   4769.537147 -14978.693098  21533.910168   -135.786025
PJ02 -24786.575215  32402.445314  -5820.158261     -0.281542
PJ03 -26152.313483  22733.958774  29134.958223     -2.407919
PR01  23597.841438  -9379.144653  -2505.037663      9.114686
PR02  13955.256480 -14032.375432  16105.176967    519.479345
PR03  -3679.760380 -10333.438107  23077.522451     57.298926
PR04 -18827.929685   -835.240787  17225.961477    143.314555
PR05 -23815.352583   8978.671897   1871.030119     93.507967
PR07   4328.229584  10019.204465 -23010.945068     35.577013
PR08  18951.859895    712.267459 -16983.871850    -65.335095
PR09  -5724.729153  23892.329972  -6695.454336     57.055111
PR11   9269.469449   9793.421694  21659.819617     38.031745
PR12  11053.293796 -10539.654384  20451.789436     18.618354
PR13   6293.191518 -23391.396432   7984.366824    -22.813589
PR14  -2578.946067 -23059.229900 -10606.916611     25.527426
PR15  -9487.651338  -9041.962680 -21864.412261     95.871010
PR17 -13542.300544 -17512.658468 -12639.156059    529.314496
PR18 -20988.920453 -14023.026079   3875.448464    118.120641
PR19 -17872.603468  -4492.286096  17629.665585   -190.368658
PR20  -2790.280095  10846.032144  22913.792272    -71.309275
PR21  14565.898858  17627.363049  11321.301139   -304.266385
PR22  20930.533632  13689.609995  -4765.700814   -185.514018
PR24   2131.676278 -11715.741356 -22546.723717     95.558843
EOF
